<?xml version="1.0" encoding="UTF-8"?>
<kml xmlns="http://www.opengis.net/kml/2.2" xmlns:gx="http://www.google.com/kml/ext/2.2" xmlns:kml="http://www.opengis.net/kml/2.2" xmlns:atom="http://www.w3.org/2005/Atom">
<Document id="root_doc">
	<name>coordenadas.kml</name>
	<open>1</open>
	<Schema name="coordenadas" id="coordenadas">
		<SimpleField type="string" name="Nombre"></SimpleField>
		<SimpleField type="int" name="Norte"></SimpleField>
		<SimpleField type="int" name="Este"></SimpleField>
	</Schema>
	<StyleMap id="msn_4">
		<Pair>
			<key>normal</key>
			<styleUrl>#sn_4</styleUrl>
		</Pair>
		<Pair>
			<key>highlight</key>
			<styleUrl>#sh_4</styleUrl>
		</Pair>
	</StyleMap>
	<StyleMap id="msn_6">
		<Pair>
			<key>normal</key>
			<styleUrl>#sn_6</styleUrl>
		</Pair>
		<Pair>
			<key>highlight</key>
			<styleUrl>#sh_6</styleUrl>
		</Pair>
	</StyleMap>
	<Style id="sh_6">
		<IconStyle>
			<scale>1.3</scale>
			<Icon>
				<href>http://maps.google.com/mapfiles/kml/paddle/6.png</href>
			</Icon>
			<hotSpot x="32" y="1" xunits="pixels" yunits="pixels"/>
		</IconStyle>
		<BalloonStyle>
		</BalloonStyle>
		<ListStyle>
			<ItemIcon>
				<href>http://maps.google.com/mapfiles/kml/paddle/6-lv.png</href>
			</ItemIcon>
		</ListStyle>
	</Style>
	<StyleMap id="msn_5">
		<Pair>
			<key>normal</key>
			<styleUrl>#sn_5</styleUrl>
		</Pair>
		<Pair>
			<key>highlight</key>
			<styleUrl>#sh_5</styleUrl>
		</Pair>
	</StyleMap>
	<Style id="sh_red-pushpin">
		<IconStyle>
			<scale>1.3</scale>
			<Icon>
				<href>http://maps.google.com/mapfiles/kml/pushpin/red-pushpin.png</href>
			</Icon>
			<hotSpot x="20" y="2" xunits="pixels" yunits="pixels"/>
		</IconStyle>
		<BalloonStyle>
		</BalloonStyle>
		<ListStyle>
		</ListStyle>
	</Style>
	<Style id="sn_5">
		<IconStyle>
			<scale>1.1</scale>
			<Icon>
				<href>http://maps.google.com/mapfiles/kml/paddle/5.png</href>
			</Icon>
			<hotSpot x="32" y="1" xunits="pixels" yunits="pixels"/>
		</IconStyle>
		<BalloonStyle>
		</BalloonStyle>
		<ListStyle>
			<ItemIcon>
				<href>http://maps.google.com/mapfiles/kml/paddle/5-lv.png</href>
			</ItemIcon>
		</ListStyle>
	</Style>
	<Style id="sh_2">
		<IconStyle>
			<scale>1.3</scale>
			<Icon>
				<href>http://maps.google.com/mapfiles/kml/paddle/2.png</href>
			</Icon>
			<hotSpot x="32" y="1" xunits="pixels" yunits="pixels"/>
		</IconStyle>
		<BalloonStyle>
		</BalloonStyle>
		<ListStyle>
			<ItemIcon>
				<href>http://maps.google.com/mapfiles/kml/paddle/2-lv.png</href>
			</ItemIcon>
		</ListStyle>
	</Style>
	<Style id="sh_ylw-pushpin">
		<IconStyle>
			<scale>1.2</scale>
		</IconStyle>
		<BalloonStyle>
		</BalloonStyle>
	</Style>
	<Style id="sh_5">
		<IconStyle>
			<scale>1.3</scale>
			<Icon>
				<href>http://maps.google.com/mapfiles/kml/paddle/5.png</href>
			</Icon>
			<hotSpot x="32" y="1" xunits="pixels" yunits="pixels"/>
		</IconStyle>
		<BalloonStyle>
		</BalloonStyle>
		<ListStyle>
			<ItemIcon>
				<href>http://maps.google.com/mapfiles/kml/paddle/5-lv.png</href>
			</ItemIcon>
		</ListStyle>
	</Style>
	<Style id="sn_1">
		<IconStyle>
			<scale>1.1</scale>
			<Icon>
				<href>http://maps.google.com/mapfiles/kml/paddle/1.png</href>
			</Icon>
			<hotSpot x="32" y="1" xunits="pixels" yunits="pixels"/>
		</IconStyle>
		<BalloonStyle>
		</BalloonStyle>
		<ListStyle>
			<ItemIcon>
				<href>http://maps.google.com/mapfiles/kml/paddle/1-lv.png</href>
			</ItemIcon>
		</ListStyle>
	</Style>
	<Style id="sn_ylw-pushpin">
		<BalloonStyle>
		</BalloonStyle>
	</Style>
	<Style id="sn_7">
		<IconStyle>
			<scale>1.1</scale>
			<Icon>
				<href>http://maps.google.com/mapfiles/kml/paddle/7.png</href>
			</Icon>
			<hotSpot x="32" y="1" xunits="pixels" yunits="pixels"/>
		</IconStyle>
		<BalloonStyle>
		</BalloonStyle>
		<ListStyle>
			<ItemIcon>
				<href>http://maps.google.com/mapfiles/kml/paddle/7-lv.png</href>
			</ItemIcon>
		</ListStyle>
	</Style>
	<Style id="sn_9">
		<IconStyle>
			<scale>1.1</scale>
			<Icon>
				<href>http://maps.google.com/mapfiles/kml/paddle/9.png</href>
			</Icon>
			<hotSpot x="32" y="1" xunits="pixels" yunits="pixels"/>
		</IconStyle>
		<BalloonStyle>
		</BalloonStyle>
		<ListStyle>
			<ItemIcon>
				<href>http://maps.google.com/mapfiles/kml/paddle/9-lv.png</href>
			</ItemIcon>
		</ListStyle>
	</Style>
	<Style id="sh_4">
		<IconStyle>
			<scale>1.3</scale>
			<Icon>
				<href>http://maps.google.com/mapfiles/kml/paddle/4.png</href>
			</Icon>
			<hotSpot x="32" y="1" xunits="pixels" yunits="pixels"/>
		</IconStyle>
		<BalloonStyle>
		</BalloonStyle>
		<ListStyle>
			<ItemIcon>
				<href>http://maps.google.com/mapfiles/kml/paddle/4-lv.png</href>
			</ItemIcon>
		</ListStyle>
	</Style>
	<StyleMap id="msn_1">
		<Pair>
			<key>normal</key>
			<styleUrl>#sn_1</styleUrl>
		</Pair>
		<Pair>
			<key>highlight</key>
			<styleUrl>#sh_1</styleUrl>
		</Pair>
	</StyleMap>
	<Style id="sh_9">
		<IconStyle>
			<scale>1.3</scale>
			<Icon>
				<href>http://maps.google.com/mapfiles/kml/paddle/9.png</href>
			</Icon>
			<hotSpot x="32" y="1" xunits="pixels" yunits="pixels"/>
		</IconStyle>
		<BalloonStyle>
		</BalloonStyle>
		<ListStyle>
			<ItemIcon>
				<href>http://maps.google.com/mapfiles/kml/paddle/9-lv.png</href>
			</ItemIcon>
		</ListStyle>
	</Style>
	<StyleMap id="msn_red-pushpin">
		<Pair>
			<key>normal</key>
			<styleUrl>#sn_red-pushpin</styleUrl>
		</Pair>
		<Pair>
			<key>highlight</key>
			<styleUrl>#sh_red-pushpin</styleUrl>
		</Pair>
	</StyleMap>
	<Style id="sh_10">
		<IconStyle>
			<scale>1.3</scale>
			<Icon>
				<href>http://maps.google.com/mapfiles/kml/paddle/10.png</href>
			</Icon>
			<hotSpot x="32" y="1" xunits="pixels" yunits="pixels"/>
		</IconStyle>
		<BalloonStyle>
		</BalloonStyle>
		<ListStyle>
			<ItemIcon>
				<href>http://maps.google.com/mapfiles/kml/paddle/10-lv.png</href>
			</ItemIcon>
		</ListStyle>
	</Style>
	<Style id="sn_6">
		<IconStyle>
			<scale>1.1</scale>
			<Icon>
				<href>http://maps.google.com/mapfiles/kml/paddle/6.png</href>
			</Icon>
			<hotSpot x="32" y="1" xunits="pixels" yunits="pixels"/>
		</IconStyle>
		<BalloonStyle>
		</BalloonStyle>
		<ListStyle>
			<ItemIcon>
				<href>http://maps.google.com/mapfiles/kml/paddle/6-lv.png</href>
			</ItemIcon>
		</ListStyle>
	</Style>
	<Style id="sn_red-pushpin">
		<IconStyle>
			<scale>1.1</scale>
			<Icon>
				<href>http://maps.google.com/mapfiles/kml/pushpin/red-pushpin.png</href>
			</Icon>
			<hotSpot x="20" y="2" xunits="pixels" yunits="pixels"/>
		</IconStyle>
		<BalloonStyle>
		</BalloonStyle>
		<ListStyle>
		</ListStyle>
	</Style>
	<Style id="sh_7">
		<IconStyle>
			<scale>1.3</scale>
			<Icon>
				<href>http://maps.google.com/mapfiles/kml/paddle/7.png</href>
			</Icon>
			<hotSpot x="32" y="1" xunits="pixels" yunits="pixels"/>
		</IconStyle>
		<BalloonStyle>
		</BalloonStyle>
		<ListStyle>
			<ItemIcon>
				<href>http://maps.google.com/mapfiles/kml/paddle/7-lv.png</href>
			</ItemIcon>
		</ListStyle>
	</Style>
	<Style id="sn_4">
		<IconStyle>
			<scale>1.1</scale>
			<Icon>
				<href>http://maps.google.com/mapfiles/kml/paddle/4.png</href>
			</Icon>
			<hotSpot x="32" y="1" xunits="pixels" yunits="pixels"/>
		</IconStyle>
		<BalloonStyle>
		</BalloonStyle>
		<ListStyle>
			<ItemIcon>
				<href>http://maps.google.com/mapfiles/kml/paddle/4-lv.png</href>
			</ItemIcon>
		</ListStyle>
	</Style>
	<Style id="sn_3">
		<IconStyle>
			<scale>1.1</scale>
			<Icon>
				<href>http://maps.google.com/mapfiles/kml/paddle/3.png</href>
			</Icon>
			<hotSpot x="32" y="1" xunits="pixels" yunits="pixels"/>
		</IconStyle>
		<BalloonStyle>
		</BalloonStyle>
		<ListStyle>
			<ItemIcon>
				<href>http://maps.google.com/mapfiles/kml/paddle/3-lv.png</href>
			</ItemIcon>
		</ListStyle>
	</Style>
	<StyleMap id="msn_7">
		<Pair>
			<key>normal</key>
			<styleUrl>#sn_7</styleUrl>
		</Pair>
		<Pair>
			<key>highlight</key>
			<styleUrl>#sh_7</styleUrl>
		</Pair>
	</StyleMap>
	<StyleMap id="msn_3">
		<Pair>
			<key>normal</key>
			<styleUrl>#sn_3</styleUrl>
		</Pair>
		<Pair>
			<key>highlight</key>
			<styleUrl>#sh_3</styleUrl>
		</Pair>
	</StyleMap>
	<StyleMap id="msn_ylw-pushpin">
		<Pair>
			<key>normal</key>
			<styleUrl>#sn_ylw-pushpin</styleUrl>
		</Pair>
		<Pair>
			<key>highlight</key>
			<styleUrl>#sh_ylw-pushpin</styleUrl>
		</Pair>
	</StyleMap>
	<Style id="sh_3">
		<IconStyle>
			<scale>1.3</scale>
			<Icon>
				<href>http://maps.google.com/mapfiles/kml/paddle/3.png</href>
			</Icon>
			<hotSpot x="32" y="1" xunits="pixels" yunits="pixels"/>
		</IconStyle>
		<BalloonStyle>
		</BalloonStyle>
		<ListStyle>
			<ItemIcon>
				<href>http://maps.google.com/mapfiles/kml/paddle/3-lv.png</href>
			</ItemIcon>
		</ListStyle>
	</Style>
	<StyleMap id="msn_2">
		<Pair>
			<key>normal</key>
			<styleUrl>#sn_2</styleUrl>
		</Pair>
		<Pair>
			<key>highlight</key>
			<styleUrl>#sh_2</styleUrl>
		</Pair>
	</StyleMap>
	<Style id="sh_1">
		<IconStyle>
			<scale>1.3</scale>
			<Icon>
				<href>http://maps.google.com/mapfiles/kml/paddle/1.png</href>
			</Icon>
			<hotSpot x="32" y="1" xunits="pixels" yunits="pixels"/>
		</IconStyle>
		<BalloonStyle>
		</BalloonStyle>
		<ListStyle>
			<ItemIcon>
				<href>http://maps.google.com/mapfiles/kml/paddle/1-lv.png</href>
			</ItemIcon>
		</ListStyle>
	</Style>
	<Style id="sn_10">
		<IconStyle>
			<scale>1.1</scale>
			<Icon>
				<href>http://maps.google.com/mapfiles/kml/paddle/10.png</href>
			</Icon>
			<hotSpot x="32" y="1" xunits="pixels" yunits="pixels"/>
		</IconStyle>
		<BalloonStyle>
		</BalloonStyle>
		<ListStyle>
			<ItemIcon>
				<href>http://maps.google.com/mapfiles/kml/paddle/10-lv.png</href>
			</ItemIcon>
		</ListStyle>
	</Style>
	<Style id="sn_2">
		<IconStyle>
			<scale>1.1</scale>
			<Icon>
				<href>http://maps.google.com/mapfiles/kml/paddle/2.png</href>
			</Icon>
			<hotSpot x="32" y="1" xunits="pixels" yunits="pixels"/>
		</IconStyle>
		<BalloonStyle>
		</BalloonStyle>
		<ListStyle>
			<ItemIcon>
				<href>http://maps.google.com/mapfiles/kml/paddle/2-lv.png</href>
			</ItemIcon>
		</ListStyle>
	</Style>
	<StyleMap id="msn_10">
		<Pair>
			<key>normal</key>
			<styleUrl>#sn_10</styleUrl>
		</Pair>
		<Pair>
			<key>highlight</key>
			<styleUrl>#sh_10</styleUrl>
		</Pair>
	</StyleMap>
	<StyleMap id="msn_9">
		<Pair>
			<key>normal</key>
			<styleUrl>#sn_9</styleUrl>
		</Pair>
		<Pair>
			<key>highlight</key>
			<styleUrl>#sh_9</styleUrl>
		</Pair>
	</StyleMap>
	<Folder>
		<name>Coordenadas - Sitios de Interés</name>
		<open>1</open>
		<description>EPSG:3116
Magna SIRGAS - Colombia Bogotá Zone</description>
		<Placemark>
			<name>P1</name>
			<description>Descripción de P1
1&apos;119.006 E, 12&apos;57.612 N</description>
			<styleUrl>#msn_1</styleUrl>
			<ExtendedData>
				<SchemaData schemaUrl="#coordenadas">
					<SimpleData name="Nombre">P1</SimpleData>
					<SimpleData name="Norte">1257612</SimpleData>
					<SimpleData name="Este">1119006</SimpleData>
				</SchemaData>
			</ExtendedData>
			<Point>
				<coordinates>-72.36974747330245,6.268720181382168,0</coordinates>
			</Point>
		</Placemark>
		<Placemark>
			<name>P2</name>
			<description>Descripción de P2
1.117.823 E, 1&apos;257.396 N
</description>
			<styleUrl>#msn_2</styleUrl>
			<ExtendedData>
				<SchemaData schemaUrl="#coordenadas">
					<SimpleData name="Nombre">P2</SimpleData>
					<SimpleData name="Norte">1257396</SimpleData>
					<SimpleData name="Este">1117823</SimpleData>
				</SchemaData>
			</ExtendedData>
			<Point>
				<coordinates>-73.01142523844951,6.92257793814867,0</coordinates>
			</Point>
		</Placemark>
		<Placemark>
			<name>P3_INVERTIDOXY</name>
			<description>Descripción P3 Invertido XY</description>
			<styleUrl>#msn_ylw-pushpin</styleUrl>
			<ExtendedData>
				<SchemaData schemaUrl="#coordenadas">
					<SimpleData name="Nombre">P3_INVERTIDOXY</SimpleData>
					<SimpleData name="Norte">1120060</SimpleData>
					<SimpleData name="Este">1250497</SimpleData>
				</SchemaData>
			</ExtendedData>
			<Point>
				<coordinates>-71.8168154078144,5.6774759182439,0</coordinates>
			</Point>
		</Placemark>
		<Placemark>
			<name>P3</name>
			<description>Descripción de P3
1&apos;120.060 E, 1&apos;250.497 N</description>
			<styleUrl>#msn_3</styleUrl>
			<ExtendedData>
				<SchemaData schemaUrl="#coordenadas">
					<SimpleData name="Nombre">P3</SimpleData>
					<SimpleData name="Norte">1250497</SimpleData>
					<SimpleData name="Este">1120060</SimpleData>
				</SchemaData>
			</ExtendedData>
			<Point>
				<coordinates>-72.99132892305531,6.86016000084534,0</coordinates>
			</Point>
		</Placemark>
		<Placemark>
			<name>P4</name>
			<description>Descripción de P4
1&apos;118.243 E, 1&apos;245.436 N</description>
			<styleUrl>#msn_4</styleUrl>
			<ExtendedData>
				<SchemaData schemaUrl="#coordenadas">
					<SimpleData name="Nombre">P4</SimpleData>
					<SimpleData name="Norte">1245436</SimpleData>
					<SimpleData name="Este">1118243</SimpleData>
				</SchemaData>
			</ExtendedData>
			<Point>
				<coordinates>-73.00786706175499,6.81444132364722,0</coordinates>
			</Point>
		</Placemark>
		<Placemark>
			<name>P5</name>
			<description>Descripción de P5
1&apos;090.383 E, 1&apos;208.311 N</description>
			<styleUrl>#msn_5</styleUrl>
			<ExtendedData>
				<SchemaData schemaUrl="#coordenadas">
					<SimpleData name="Nombre">P5</SimpleData>
					<SimpleData name="Norte">1208311</SimpleData>
					<SimpleData name="Este">1090383</SimpleData>
				</SchemaData>
			</ExtendedData>
			<Point>
				<coordinates>-73.2604263199606,6.47926601799557,0</coordinates>
			</Point>
		</Placemark>
		<Placemark>
			<name>P6</name>
			<description>Descripción de P6
1&apos;090.342 E, 1&apos;208.312 N</description>
			<styleUrl>#msn_6</styleUrl>
			<ExtendedData>
				<SchemaData schemaUrl="#coordenadas">
					<SimpleData name="Nombre">P6</SimpleData>
					<SimpleData name="Norte">1208312</SimpleData>
					<SimpleData name="Este">1090342</SimpleData>
				</SchemaData>
			</ExtendedData>
			<Point>
				<coordinates>-73.26079692857,6.47927565606921,0</coordinates>
			</Point>
		</Placemark>
		<Placemark>
			<name>P7</name>
			<description>Descripción de P7
1&apos;057.528 E, 1&apos;108.930 N</description>
			<styleUrl>#msn_7</styleUrl>
			<ExtendedData>
				<SchemaData schemaUrl="#coordenadas">
					<SimpleData name="Nombre">P7</SimpleData>
					<SimpleData name="Norte">1108930</SimpleData>
					<SimpleData name="Este">1057528</SimpleData>
				</SchemaData>
			</ExtendedData>
			<Point>
				<coordinates>-73.5582871671654,5.58102277961167,0</coordinates>
			</Point>
		</Placemark>
		<Placemark>
			<name>P9</name>
			<description>Descripción de P9
1&apos;063.902 E, 1&apos;106.960 N</description>
			<styleUrl>#msn_9</styleUrl>
			<ExtendedData>
				<SchemaData schemaUrl="#coordenadas">
					<SimpleData name="Nombre">P9</SimpleData>
					<SimpleData name="Norte">1106960</SimpleData>
					<SimpleData name="Este">1063902</SimpleData>
				</SchemaData>
			</ExtendedData>
			<Point>
				<coordinates>-73.5007776860361,5.5631556845669,0</coordinates>
			</Point>
		</Placemark>
		<Placemark>
			<name>P10</name>
			<description>Descripción de P10
1&apos;062.028 E, 1&apos;136.957 N</description>
			<styleUrl>#msn_10</styleUrl>
			<ExtendedData>
				<SchemaData schemaUrl="#coordenadas">
					<SimpleData name="Nombre">P10</SimpleData>
					<SimpleData name="Norte">1136957</SimpleData>
					<SimpleData name="Este">1062028</SimpleData>
				</SchemaData>
			</ExtendedData>
			<Point>
				<coordinates>-73.51742762206619,5.834415785887901,0</coordinates>
			</Point>
		</Placemark>
		<Placemark>
			<name>P11</name>
			<description>Descripción de P11
1&apos;062.990 E, 1&apos;135.747 N</description>
			<styleUrl>#msn_red-pushpin</styleUrl>
			<ExtendedData>
				<SchemaData schemaUrl="#coordenadas">
					<SimpleData name="Nombre">P11</SimpleData>
					<SimpleData name="Norte">1135747</SimpleData>
					<SimpleData name="Este">1062990</SimpleData>
				</SchemaData>
			</ExtendedData>
			<Point>
				<coordinates>-73.5087525693354,5.82346588007186,0</coordinates>
			</Point>
		</Placemark>
	</Folder>
</Document>
</kml>
